OBJECT_NAME,OBJECT_ID,EPOCH,MEAN_MOTION,ECCENTRICITY,INCLINATION,RA_OF_ASC_NODE,ARG_OF_PERICENTER,MEAN_ANOMALY,EPHEMERIS_TYPE,CLASSIFICATION_TYPE,NORAD_CAT_ID,ELEMENT_SET_NO,REV_AT_EPOCH,BSTAR,MEAN_MOTION_DOT,MEAN_MOTION_DDOT
APRIZESAT 2,2004-025A,2026-06-22T17:05:14.640864,14.38037588,.01045369,98.1020,339.3797,232.9770,126.1820,0,U,28366,999,15243,.53693322E-4,.13E-5,0
SAUDICOMSAT 1,2004-025D,2026-06-21T18:13:59.897856,14.55476534,.00323511,98.5770,183.0144,11.8508,348.3443,0,U,28369,999,16479,.64829516E-4,.234E-5,0
SAUDICOMSAT 2,2004-025E,2026-06-22T12:10:58.443168,14.49983543,.00543103,98.6639,185.9044,243.0423,116.5217,0,U,28370,999,16087,.51541435E-4,.153E-5,0
APRIZESAT 1,2004-025G,2026-06-22T06:10:08.797728,14.51779229,.00453686,98.6302,184.1206,138.6944,221.7696,0,U,28372,999,16264,.56011377E-4,.179E-5,0
NANOSAT-1,2004-049B,2026-06-22T17:05:48.507936,14.80168082,.00027091,98.2283,310.5085,276.4057,83.6846,0,U,28493,999,15626,.99550563E-4,.701E-5,0
SAUDICOMSAT 7,2007-012C,2026-06-22T10:28:04.198080,14.66114011,.00557191,98.3778,147.6752,178.6250,181.5116,0,U,31119,999,2320,.66148413E-4,.318E-5,0
SAUDICOMSAT 6,2007-012E,2026-06-22T15:09:43.320960,14.62563435,.00707372,98.4099,141.2495,310.6184,48.8878,0,U,31121,999,2098,.81767275E-4,.376E-5,0
SAUDICOMSAT 5,2007-012H,2026-06-22T17:49:59.130336,14.68162103,.00486705,98.3491,148.7343,107.6544,252.9983,0,U,31124,999,2441,.89543209E-4,.471E-5,0
SAUDICOMSAT 3,2007-012J,2026-06-22T16:39:18.222624,14.70713269,.00399424,98.3145,149.2321,36.2880,324.1022,0,U,31125,999,2563,.10780673E-3,.611E-5,0
SAUDICOMSAT 4,2007-012L,2026-06-22T03:24:46.384128,14.64515940,.00621767,98.3984,145.8138,242.4203,117.0675,0,U,31127,999,2201,.67650205E-4,.314E-5,0
APRIZESAT 4,2009-041D,2026-06-22T01:04:20.504064,14.83884178,.00421395,98.1411,248.4620,306.9157,52.8199,0,U,35684,999,91208,.57768208E-4,.427E-5,0
APRIZESAT 3,2009-041F,2026-06-22T09:10:09.977088,14.96257121,.00627562,98.2072,326.8548,50.9097,309.7681,0,U,35686,999,91715,.12484929E-3,.1398E-4,0
S-NET D,2018-014G,2026-06-22T11:25:22.785888,15.16713673,.00083506,97.5356,78.2333,13.7273,346.4185,0,U,43186,999,45956,.20784493E-3,.4009E-4,0
S-NET B,2018-014H,2026-06-22T11:42:01.257984,15.16683517,.00088347,97.5362,78.2315,8.1759,351.9616,0,U,43187,999,45956,.20981452E-3,.4044E-4,0
S-NET A,2018-014J,2026-06-22T11:23:43.334304,15.16722102,.00087365,97.5373,78.4286,9.0846,351.0543,0,U,43188,999,45956,.21025128E-3,.4057E-4,0
S-NET C,2018-014K,2026-06-22T07:02:37.577472,15.16673916,.00098876,97.5389,78.3239,0.7048,359.4197,0,U,43189,999,45808,.20205313E-3,.3892E-4,0
SALSAT,2020-068K,2026-06-22T07:30:24.147072,15.29860164,.0007816,97.8856,176.6896,286.6046,73.4334,0,U,46495,999,31614,.20010299E-3,.5705E-4,0
OOV-CUBE (TUBSAT-30),2024-128F,2026-06-22T13:52:34.680288,15.02789334,.00439627,61.9926,206.7746,134.9443,225.5227,0,U,60240,999,10692,.1001519E-3,.1157E-4,0
LPNTSAT-001 (IOD-1),2026-065A,2026-06-22T11:31:20.309952,15.18560091,.00160921,97.4013,53.8775,352.4315,7.6674,0,U,68408,999,1306,.10672236E-3,.2144E-4,0
