APRIZESAT 2             
1 28366U 04025A   26173.71197501  .00000130  00000+0  53693-4 0  9999
2 28366  98.1020 339.3797 0104536 232.9770 126.1820 14.38037588152439
SAUDICOMSAT 1           
1 28369U 04025D   26172.75972104  .00000234  00000+0  64830-4 0  9995
2 28369  98.5770 183.0144 0032351  11.8508 348.3443 14.55476534164794
SAUDICOMSAT 2           
1 28370U 04025E   26173.50762087  .00000153  00000+0  51541-4 0  9993
2 28370  98.6639 185.9044 0054310 243.0423 116.5217 14.49983543160870
APRIZESAT 1             
1 28372U 04025G   26173.25704627  .00000179  00000+0  56011-4 0  9998
2 28372  98.6302 184.1206 0045368 138.6944 221.7696 14.51779229162644
NANOSAT-1               
1 28493U 04049B   26173.71236699  .00000701  00000+0  99551-4 0  9995
2 28493  98.2283 310.5085 0002709 276.4057  83.6846 14.80168082156264
SAUDICOMSAT 7           
1 31119U 07012C   26173.43615970  .00000318  00000+0  66148-4 0  9999
2 31119  98.3778 147.6752 0055719 178.6250 181.5116 14.66114011 23202
SAUDICOMSAT 6           
1 31121U 07012E   26173.63175140  .00000376  00000+0  81767-4 0  9992
2 31121  98.4099 141.2495 0070737 310.6184  48.8878 14.62563435 20983
SAUDICOMSAT 5           
1 31124U 07012H   26173.74304549  .00000471  00000+0  89543-4 0  9990
2 31124  98.3491 148.7343 0048670 107.6544 252.9983 14.68162103 24410
SAUDICOMSAT 3           
1 31125U 07012J   26173.69396091  .00000611  00000+0  10781-3 0  9991
2 31125  98.3145 149.2321 0039942  36.2880 324.1022 14.70713269 25630
SAUDICOMSAT 4           
1 31127U 07012L   26173.14220352  .00000314  00000+0  67650-4 0  9997
2 31127  98.3984 145.8138 0062176 242.4203 117.0675 14.64515940 22017
APRIZESAT 4             
1 35684U 09041D   26173.04468176  .00000427  00000+0  57768-4 0  9994
2 35684  98.1411 248.4620 0042139 306.9157  52.8199 14.83884178912084
APRIZESAT 3             
1 35686U 09041F   26173.38205992  .00001398  00000+0  12485-3 0  9992
2 35686  98.2072 326.8548 0062756  50.9097 309.7681 14.96257121917155
S-NET D                 
1 43186U 18014G   26173.47595817  .00004009  00000+0  20784-3 0  9997
2 43186  97.5356  78.2333 0008350  13.7273 346.4185 15.16713673459564
S-NET B                 
1 43187U 18014H   26173.48751456  .00004044  00000+0  20981-3 0  9990
2 43187  97.5362  78.2315 0008834   8.1759 351.9616 15.16683517459569
S-NET A                 
1 43188U 18014J   26173.47480711  .00004057  00000+0  21025-3 0  9997
2 43188  97.5373  78.4286 0008736   9.0846 351.0543 15.16722102459563
S-NET C                 
1 43189U 18014K   26173.29349048  .00003892  00000+0  20205-3 0  9990
2 43189  97.5389  78.3239 0009887   0.7048 359.4197 15.16673916458089
SALSAT                  
1 46495U 20068K   26173.31277948  .00005705  00000+0  20010-3 0  9996
2 46495  97.8856 176.6896 0007816 286.6046  73.4334 15.29860164316141
OOV-CUBE (TUBSAT-30)    
1 60240U 24128F   26173.57817917  .00001157  00000+0  10015-3 0  9996
2 60240  61.9926 206.7746 0043962 134.9443 225.5227 15.02789334106926
LPNTSAT-001 (IOD-1)     
1 68408U 26065A   26173.48009618  .00002144  00000+0  10672-3 0  9999
2 68408  97.4013  53.8775 0016092 352.4315   7.6674 15.18560091 13064
